NEXTSAT-1               
1 43811U 18099BF  26068.68342010  .00004546  00000+0  29857-3 0  9992
2 43811  97.4203 114.8574 0011320 323.9610  36.0854 15.08057555396886
STARLINK-34714          
1 64939U 25158H   26068.64335227  .00006953  00000+0  48537-3 0  9998
2 64939  97.6029 294.1154 0001395  61.9210 298.2158 15.05667828 35190
